#aV2024  1 13  0  0  0.00000000     288 DD+AD WGS84 FIT  NGA
## 2296 518400.00000000   300.00000000 60322 0.0000000000000
+   31     1  2  3  4  5  6  7  8  9 10 11 12 13 14 15 16 17
+         18 19 20 21 22 23 24 25 26 28 29 30 31 32  0  0  0
+          0  0  0  0  0  0  0  0  0  0  0  0  0  0  0  0  0
+          0  0  0  0  0  0  0  0  0  0  0  0  0  0  0  0  0
+          0  0  0  0  0  0  0  0  0  0  0  0  0  0  0  0  0
++         2  2  2  2  2  2  2  2  2  2  2  2  2  2  2  2  2
++         2  2  2  2  2  2  2  2  2  2  2  2  2  2  0  0  0
++         0  0  0  0  0  0  0  0  0  0  0  0  0  0  0  0  0
++         0  0  0  0  0  0  0  0  0  0  0  0  0  0  0  0  0
++         0  0  0  0  0  0  0  0  0  0  0  0  0  0  0  0  0
%c cc cc ccc ccc cccc cccc cccc cccc ccccc ccccc ccccc ccccc
%c cc cc ccc ccc cccc cccc cccc cccc ccccc ccccc ccccc ccccc
%f  0.0000000  0.000000000  0.00000000000  0.000000000000000
%f  0.0000000  0.000000000  0.00000000000  0.000000000000000
%i    0    0    0    0      0      0      0      0         0
%i    0    0    0    0      0      0      0      0         0
/*      NGA, ST. LOUIS,MO.                                  
/*   EPHEMERIS COMPUTED FROM 2 DAYS OF DATA                 
/*   EPOCHA v9 SMOOTHER                                     
/*   G2296 IERS2010 SATIGS SATAPC                           
*  2024  1 13 15 15  0.00000000
P  1 -22536.423828 -13800.845831  -4490.486613    166.003495                    
V  1   5338.022420    830.078861 -31510.397564      0.010277                    
P  2 -19369.030886 -14524.241917 -10696.456789   -501.451409                    
V  2  14185.422430   2565.634990 -27639.654401      0.056070                    
P  3 -11468.235558 -19335.621590  14095.361046    123.461542                    
V  3   -275.448663 -18122.433601 -24722.180442      0.259935                    
P  4 -14211.196980  -7972.638681  21010.610152    265.071431                    
V  4  21657.907206 -15480.865852   8648.205130      0.097603                    
P  5   6606.610592  25409.950465  -3859.778999   -157.816826                    
V  5  -1821.081221   5028.378260  31503.069164     -0.014270                    
P  6 -11827.335702  10178.367171  21580.022225    446.028258                    
V  6 -24502.542841 -11668.665061  -7852.472109     -0.131766                    
P  7 -24895.248477  -4544.481871  -8331.430677    -36.353358                    
V  7  -9090.123871  -6940.281074  28782.704541     -0.093674                    
P  8  -6789.320153 -14021.719328 -21559.812454   -161.901709                    
V  8  21836.282066 -16286.864278   4148.689653     -0.018701                    
P  9 -21771.793136   3627.450522  14734.153081     57.611975                    
V  9  13664.917095 -13141.826746  23234.490537      0.121951                    
P 10  11247.007936 -14302.664336 -19024.199501    -69.179399                    
V 10   3899.188922  24370.800339 -16165.182242     -0.015249                    
P 11    -21.985308  16262.029180  21033.622355   -538.415712                    
V 11 -24105.676224 -11325.681780   8693.142125     -0.140505                    
P 12  10331.418352  20056.332181  13789.575024   -467.483504                    
V 12  -1491.287799  18024.225736 -24522.013955     -0.038377                    
P 13  -4410.217412  17527.816660 -19588.759187    615.464087                    
V 13 -22166.829987  10456.813910  14709.970989      0.037281                    
P 14 -13739.970762  10376.691715 -20154.755696    297.614042                    
V 14  -3271.643228 -25561.063068 -11097.762524      0.102564                    
P 15   8447.685730  13919.189674 -21452.629774    116.840589                    
V 15 -19089.826717  18009.835330   4476.709070      0.038824                    
P 16    669.876576 -26223.075628   1670.348869   -384.924122                    
V 16   3210.132749   2485.896426  32011.681773      0.077275                    
P 17 -23095.260965  13024.534857  -2144.996446    719.962367                    
V 17   1440.445866  -3747.822264 -31739.060077     -0.008944                    
P 18  24257.989460   3447.995851 -10464.281390   -531.125963                    
V 18  11163.880679   7366.966789  28086.481898     -0.092493                    
P 19 -19693.822138  16323.396923   6235.199819    426.011363                    
V 19  -8495.806401   1756.265024 -30859.177696      0.052665                    
P 20   -365.281900  24691.162759  10066.116464    391.726217                    
V 20  -5999.272359 -11445.068854  27847.044175     -0.019052                    
P 21 -16162.325283 -15883.712535 -14102.628189    138.525885                    
V 21  17927.942584   4379.207533 -23672.218564     -0.012217                    
P 22 -10731.175437  18232.968296 -15802.029224     48.923659                    
V 22  -2166.771873 -20716.075111 -21553.399231     -0.065138                    
P 23  14878.572787   -635.396799 -21978.467031    134.613373                    
V 23   3711.875693  27649.928446   1528.615967      0.074630                    
P 24  17905.395691  15765.993975 -12505.185722   -413.070516                    
V 24 -15185.361100  -2368.363275 -25154.822300     -0.072103                    
P 25  15196.967610   8895.893284  19626.740551    485.116991                    
V 25   1924.068281  25567.221135 -12590.515600      0.013407                    
P 26   4889.549605 -22895.256586  12043.001155    200.678123                    
V 26   6171.532515  14850.948790  25791.456677     -0.035262                    
P 28  14475.918354  -9358.841897  20180.259372    -97.616037                    
V 28  23416.729165  10594.110847 -11875.100437     -0.113412                    
P 29  21483.985528   -809.680337  15614.963819   -608.738269                    
V 29 -16007.938295  11841.605246  22473.736557      0.005253                    
P 30 -20074.677335   4591.690998 -16793.340058   -445.912433                    
V 30 -18792.316560 -10730.261750  19120.401114      0.046176                    
P 31   5827.968579 -14117.507758  21510.881066   -227.272317                    
V 31  25324.289186  11592.132156   1139.157136     -0.002451                    
P 32  20981.776291 -16091.174526    555.376861   -604.758691                    
V 32   2162.315735   2106.606454 -31898.594786     -0.028875                    
EOF
